,City,Country,Lat,Lng,Hotel Name
0,ushuaia,AR,-54.8,-68.3,Los Cauquenes Resort & Spa
1,mataura,NZ,-46.19,168.86,Falls Hotel
2,longyearbyen,SJ,78.22,15.64,"Radisson Blu Polar Hotel, Spitsbergen"
3,cape town,CL,-36.41,-71.9,Hotel Molino Viejo
4,hilo,US,19.73,-155.09,Grand Naniloa Hotel Hilo - a DoubleTree by Hilton
5,jamestown,US,42.1,-79.24,Chautauqua Harbor Hotel
6,punta arenas,PH,8.99,125.34,
7,rikitea,PF,-23.12,-134.97,Pension Maro'i
8,daru,PG,-9.08,143.21,Daru hotel
9,avarua,CK,-21.21,-159.78,The Edgewater Resort and Spa
10,lebu,CL,-37.62,-73.65,Hotel Plaza Lebu
11,buala,SB,-8.14,159.59,Maringe Lagoon Lodge
12,pouebo,NC,-20.4,164.57,
13,busselton,AU,-33.65,115.33,Abbey Beach Resort
14,atuona,PF,-9.8,-139.03,Hôtel Hiva Oa Hanakee Lodge
15,aksu,CN,41.12,80.26,Pudong Holiday Hotel
16,northam,GB,51.03,-4.22,Seagate Hotel
17,cusco,PE,-13.52,-71.98,Hilton Garden Inn Cusco
18,talnakh,RU,69.49,88.4,Talnakh Hotel
19,karema,TZ,-6.82,30.44,
20,poum,NC,-20.23,164.02,
21,saskylakh,RU,71.92,114.08,
22,disraeli,CA,45.9,-71.35,Auberge De La Chanterelle
23,ilulissat,GL,69.22,-51.1,Hotel Arctic
24,new norfolk,LR,6.65,-10.59,
25,nikolskoye,RU,59.7,30.79,Tourist House - Sablino
26,hermanus,ZA,-34.42,19.23,Harbour House Hotel
27,port alfred,CD,-7.03,29.76,
28,biarritz,FR,43.48,-1.56,"Radisson Blu Hotel, Biarritz"
29,pisco,PE,-13.7,-76.22,Embassy Beach
30,koumac,NC,-20.57,164.28,Le Monitel
31,ziniare,BF,12.58,-1.3,
32,souillac,MU,-20.52,57.52,Shanti Maurice Resort & Spa
33,albany,US,42.6,-73.97,
34,severo-kurilsk,RU,50.68,156.12,Kak Doma
35,rocha,UY,-34.48,-54.33,Casa Rodo 53
36,ribeira grande,ES,42.75,-8.44,Casa de Fares
37,mar del plata,ES,43.4,-4.01,Amita Hotel Boutique
38,chokurdakh,RU,70.63,147.92,
39,baykit,RU,61.67,96.37,
40,udachnyy,RU,66.42,112.4,
41,vaini,TO,-21.2,-175.2,Paradise First Hotel
42,ancud,CL,-41.87,-73.82,Hotel Arena Gruesa
43,barrow,US,71.29,-156.79,Top of the World Hotel
44,cayenne,GF,4.93,-52.33,Royal Amazonia
45,chernenko,RU,44.37,39.31,
46,sinnamary,GF,5.38,-52.95,L'oiseau de Paradis
47,bluff,NZ,-46.6,168.33,Land's End Boutique Hotel
48,anuradhapura,LK,8.36,80.42,Avasta Resort and Spa
49,kavaratti,IN,10.57,72.64,Bismillah Hotel And Lodging
50,bredasdorp,ZA,-34.53,20.04,6 On Kloof Guesthouse
51,nouakchott,MR,18.09,-15.98,AZALAÏ HOTEL NOUAKCHOTT (MARHABA )
52,grakhovo,RU,56.05,51.97,Gostinitsa Aslan
53,olafsvik,IS,64.89,-23.71,Hotel Olafsvik
54,upernavik,GL,72.79,-56.15,Café de Upernavik
55,airai,TL,-8.93,125.41,
56,saint-georges,GD,12.06,-61.75,Laluna Boutique Beach Hotel and Villas
57,luderitz,,-26.65,15.16,Obelix Guesthouse
58,kruisfontein,ZA,-34.0,24.73,
59,jawhar,SO,2.78,45.5,Safa hotel jowhar somalia
60,strezhevoy,RU,60.73,77.59,"Гостиница ""Турист"""
61,bang mun nak,CM,9.87,13.98,
62,darnah,LY,32.77,22.64,Pearl Hotel Derna
63,clyde river,US,41.3,-82.98,Red Roof Inn Clyde
64,naples,IT,40.83,14.25,Renaissance Naples Hotel Mediterraneo
65,georgetown,MY,5.41,100.34,"Eastern & Oriental Hotel, Penang"
66,tasiilaq,GL,65.61,-37.64,The Red House
67,yellowknife,CA,62.46,-114.35,The Explorer Hotel
68,klaksvik,FO,62.23,-6.59,Hotel Klaksvík
69,east london,IS,65.0,-15.0,Hengifoss Guesthouse
70,morant bay,JM,17.9,-76.43,Barefoot Guest House
71,sitka,US,57.05,-135.33,Sitka Hotel & Restaurant
72,grand river south east,US,38.88,-109.5,
73,kapaa,US,22.08,-159.32,Hotel Coral Reef
74,chuy,UY,-33.7,-53.46,Rivero Hotel Chuí
75,port elizabeth,CD,-7.03,29.76,
76,thompson,CA,55.74,-97.86,Best Western Thompson Hotel & Suites
77,dikson,RU,73.51,80.55,
78,provideniya,RU,64.38,-173.3,
79,chardara,KZ,41.25,67.97,"Gostinitsa ""Kyzyl Zhar"""
80,puerto ayora,ES,36.59,-6.23,Hotel Monasterio de San Miguel
81,vestmannaeyjar,IS,63.44,-20.27,Hotel Vestmannaeyjar
82,forestville,US,38.85,-76.88,"Country Inn & Suites by Radisson, Camp Springs (Andrews Air Force Base), MD"
83,bitkine,TD,11.98,18.21,
84,castro,BR,-24.79,-50.01,Pousada Rota Dos Tropeiros
85,sahuaripa,MX,29.05,-109.23,Hotel El Molino de Don Pepe
86,qaanaaq,GL,77.48,-69.36,Qaanaaq Hotel
87,acarau,BR,-2.89,-40.12,Castelo Encantado
88,esperance,AU,-33.87,121.9,The Jetty Resort
89,iqaluit,CA,63.75,-68.51,Frobisher Inn
90,goure,NE,13.98,10.27,
91,baniachang,BD,24.52,91.37,
92,bethel,US,41.37,-73.41,Best Western Danbury/Bethel
93,cabo san lucas,BR,-8.28,-35.03,
94,tiarei,PF,-17.53,-149.33,Le Rocher de Tahiti
95,butaritari,KI,3.07,172.79,
96,saint-philippe,RE,-21.36,55.77,Pinpin d'Amour
97,that phanom,IN,26.86,71.83,
98,okhotsk,RU,59.38,143.3,Gostinitsa V Okhotske
99,emerald,AU,-23.53,148.17,Emerald Star Hotel
100,taganak,PH,6.08,118.3,
101,batagay-alyta,RU,67.8,130.41,
102,hithadhoo,MV,-0.6,73.08,MY FINE STAY
103,dzaoudzi,YT,-12.79,45.27,Hotel Maharajah Mayotte
104,awjilah,LY,29.11,21.29,
105,amapa,BR,1.0,-52.0,
106,catuday,PH,16.29,119.81,Hotel G Beach Resort and Restobar
107,swan hill,PH,18.22,121.38,Walai Resort
108,tual,ID,-5.67,132.75,Grand Vilia Hotel
109,dukat,RU,62.55,155.55,
110,comodoro rivadavia,BR,-13.66,-59.79,Rossi Hotel
111,shetpe,KZ,44.17,52.12,
112,aykhal,RU,66.0,111.5,
113,khor,RU,47.89,134.95,
114,tiksi,RU,71.69,128.87,Arktika
115,shakiso,ET,5.75,38.92,Heluya International Hotel
116,vao,NC,-22.67,167.48,OURE TERA beach resort
117,ikalamavony,MG,-21.15,46.58,
118,leningradskiy,RU,69.38,178.42,
119,torbay,CA,47.67,-52.73,
120,aquiraz,BR,-3.9,-38.39,Mandara Kauai
121,sambava,MG,-14.27,50.17,Hôtel Las Palmas
122,manzanillo,CU,20.34,-77.12,Hotel Guacanayabo
123,niquelandia,BR,-14.47,-48.46,hotel simao
124,aklavik,CA,68.22,-135.01,Sundog Inn
125,zhangye,CN,38.93,100.45,Zhangye Lvzhou Holiday Inn
126,neuquen,AR,-38.95,-68.06,Cyan Soho Neuquen Hotel
127,whitehorse,CA,60.72,-135.05,Days Inn by Wyndham Whitehorse
128,lagoa,PT,39.05,-27.98,Graciosa Resort - Biosphere Island Hotel
129,ramshir,IR,30.89,49.41,
130,fortuna,US,40.6,-124.16,Bear River Casino Resort
131,maxixe,MZ,-23.86,35.35,Sentidos Beach Retreat
132,lavrentiya,RU,65.58,-171.0,
133,college,US,64.86,-147.8,Pike's Waterfront Lodge
134,ribas do rio pardo,PT,41.45,-8.02,Vila de Cima House
135,abnub,EG,27.27,31.15,
136,hobart,AU,-42.88,147.33,The Brunswick Hotel
137,nome,US,64.5,-165.41,Aurora Inn & Suites
138,kamennogorsk,RU,60.95,29.13,"Serafima, Gostinitsa"
139,awbari,LY,26.59,12.78,
140,muli,MV,2.92,73.57,Medhufushi Island Resort
141,cidreira,BR,-30.18,-50.21,Pousada Rosa
142,victoria,HK,22.29,114.16,Hotel ICON
143,marsa matruh,MT,35.88,14.5,Preluna
144,nanortalik,GL,60.14,-45.24,Hotel Kap Farvel
145,maanshan,CN,31.7,118.5,马鞍山万达嘉华酒店
146,livingston,GB,55.9,-3.52,Macdonald Houstoun House
147,guerrero negro,MX,17.67,-100.0,
148,geraldton,AU,-28.77,114.6,ibis Styles Geraldton
149,wajima,JP,37.4,136.9,Wajiima Onsen Yashio
150,mys shmidta,RU,62.06,48.62,
151,beira,MZ,-19.84,34.84,Beira Terrace Hotel
152,srednekolymsk,RU,67.45,153.68,
153,cherskiy,RU,68.75,161.3,
154,brokopondo,SR,4.75,-55.17,Matu Island
155,sassandra,CI,4.95,-6.08,JOYAU CACHÉ
156,meulaboh,ID,4.14,96.13,Khalifa Homestay
157,flin flon,FR,48.5,6.66,
158,port hardy,CD,-7.03,29.76,
159,aripuana,BR,-9.17,-60.63,
160,kamaishi,JP,39.27,141.88,Hotel Folkloro Sanriku Kamaishi
161,carnarvon,AU,-24.87,113.63,Hospitality Carnarvon
162,pangnirtung,CA,66.15,-65.71,Auyuittuq Lodge (Inns North)
163,oistins,BB,13.07,-59.53,Turtle Beach By Elegant Hotels
164,carutapera,BR,-1.2,-46.02,HOTEL R. SOARES
165,haines junction,US,59.23,-135.44,Aspen Suites Hotel Haines
166,chiniot,PK,31.72,72.98,Qandeel hotel
167,salalah,OM,17.02,54.09,Salalah Gardens Hotel
168,porto novo,PT,41.15,-8.61,Eurostars Porto Douro
169,arraial do cabo,BR,-22.84,-46.65,
170,canton,CN,23.12,113.25,DoubleTree by Hilton Hotel Guangzhou
171,arman,RU,59.7,150.17,
172,kaitangata,NZ,-46.28,169.85,
173,pampa,US,35.54,-100.96,Hampton Inn Pampa
174,iskilip,TR,40.74,34.47,İskilip Gücü Lokali Ve Oteli
175,ust-maya,RU,60.42,134.53,
176,bambanglipuro,ID,-7.95,110.28,Puri Brata
177,kavieng,PG,-2.57,150.8,Nusa Island Retreat
178,russell,US,32.35,-85.2,
179,axim,GH,4.87,-2.24,Axim Beach Hotel
180,zaysan,KZ,47.47,84.87,Rahat Hotel
181,jieshi,CN,22.81,115.83,维也纳酒店
182,monmouth,US,40.3,-74.17,Colts Neck Inn Hotel
183,lorengau,PG,-2.02,147.27,Lorengau Harbourside Hotel
184,havelock,US,34.88,-76.9,Holiday Inn Express and Suites Havelock
185,saint-paul,RE,-21.01,55.27,Hôtel & Spa Le Saint Alexis
186,wadena,US,46.44,-95.14,"AmericInn by Wyndham, Wadena"
187,guaruja,BR,-23.99,-46.26,Sheraton Santos Hotel
188,doka,SD,13.52,35.77,
189,doha,QA,25.29,51.53,Warwick Doha Hotel
190,san ramon,ML,13.3,-4.9,Hôtel Teriya
191,mahebourg,MU,-20.41,57.7,Shandrani Beachcomber Resort & Spa
192,tabriz,IR,38.08,46.29,Tabriz Hotel
193,calabar,NG,4.95,8.32,Transcorp Hotels Calabar
194,fairbanks,US,64.84,-147.72,Westmark Fairbanks Hotel & Conference Center
195,fukuma,JP,33.77,130.47,Glamping Fukuoka Budo No Ki
196,kargasok,RU,59.06,80.86,Gostinitsa Grenada
197,sao felix do xingu,IN,20.51,76.21,BULDANA URBAN RESIDENCY CLUB
198,vardo,NO,70.37,31.11,Vardø Hotel AS
199,codrington,AU,-38.27,141.97,Codrington Gardens Bed And Breakfast
200,tuktoyaktuk,CA,69.45,-133.04,Hunter's B&B
201,port blair,CD,-7.03,29.76,
202,gamba,GA,-2.65,10.0,
203,wanning,CN,18.8,110.4,海南康乐园海航度假酒店
204,lerwick,GB,60.15,-1.15,"The Queens Hotel, Lerwick"
205,guilin,CN,25.28,110.29,Shangri-La Hotel
206,bathsheba,BB,13.22,-59.52,Atlantis Hotel
207,pucallpa,PE,-8.38,-74.55,Wyndham Costa del Sol Pucallpa
208,lompoc,US,34.64,-120.46,Embassy Suites by Hilton Lompoc Central Coast
209,san patricio,ML,13.3,-4.9,Hôtel Teriya
210,korla,CN,41.76,86.15,Kangcheng Jian Guo International Hotel
211,saran,FR,47.95,1.88,Aparthotel Adagio Access Orléans
212,hamilton,US,39.18,-84.53,Six Acres Bed & Breakfast
213,takoradi,GH,4.88,-1.76,Protea Hotel by Marriott Takoradi Select
214,leshukonskoye,RU,64.9,45.76,Gostinitsa Mup Zhkkh
215,coquimbo,CL,-29.95,-71.34,Enjoy Coquimbo Hotel de la Bahía
216,aurad,IN,18.25,77.43,Hotel Saptagiri Boarding And Lodging
217,katsuura,JP,35.13,140.3,Katsuura Hotel Mikazuki
218,prokuplje,RS,43.23,21.59,Luna
219,iquique,CL,-20.22,-70.14,Hotel Terrado Cavancha
220,lumby,CA,50.25,-118.97,
221,semey,KZ,50.41,80.23,Hotel Europa
222,saldanha,ZA,-33.01,17.94,Protea Hotel by Marriott Saldanha Bay
223,grand-santi,GF,4.25,-54.38,Hôtel La Villa Couacou
224,cedar rapids,US,41.21,-92.53,
225,conde,BR,-7.26,-34.91,
226,gavle,SE,60.67,17.14,Elite Grand Hotel
227,sungairaya,ID,0.7,108.9,
228,araceli,PH,10.55,119.99,Pandan Beach and Picnic Grove
229,galveston,US,29.37,-94.97,Candlewood Suites Texas City
230,harnosand,SE,62.63,17.94,First Hotel Stadt
231,labuhan,ID,-6.88,112.21,
232,maloy,NO,61.94,5.11,Thon Hotel Måløy
233,ostrovnoy,RU,68.05,39.51,
234,tuatapere,NZ,-46.13,167.68,Last Light Lodge
235,erzin,TR,36.96,36.2,Hattusa Vacation Thermal Club Erzin
236,yulara,AU,-25.24,130.99,Desert Gardens Hotel - Ayers Rock Resort
237,woodward,US,36.43,-99.39,Hampton Inn & Suites Woodward
238,prince rupert,CA,52.97,-108.38,
239,alofi,NU,-19.06,-169.92,Taloa Heights
240,atar,MR,20.52,-13.05,Auberge mer et desert
241,san quintin,ML,13.3,-4.9,Hôtel Teriya
242,qesarya,IL,32.52,34.9,Dan Caesarea
243,oranjestad,AW,12.52,-70.03,Renaissance Aruba Resort & Casino
244,muisne,EC,0.6,-80.03,Quinta Samay
245,venice,US,27.1,-82.45,On the Beach
246,nassau,US,40.75,-73.58,Long Island Marriott
247,xining,CN,36.62,101.77,Sofitel Xining
248,lodja,CD,-3.48,23.43,
249,sterling,US,39.01,-77.43,Best Western Dulles Airport Inn
250,ponta do sol,PT,38.73,-28.27,Casa dos Lagos - AL
251,bemidji,US,47.47,-94.88,DoubleTree by Hilton Hotel Bemidji
252,tautira,PF,-17.73,-149.15,
253,barabai,ID,-2.58,115.38,Madani Hotel
254,mikhaylovka,RU,50.06,43.24,Zhemchuzhina
255,bambous virieux,MU,-20.26,57.41,La Pirogue Mauritius
256,vilhena,BR,-12.74,-60.15,Hotel Mirage
257,westport,US,41.14,-73.36,Hilton Garden Inn Norwalk
258,kandi,BJ,11.13,2.94,HOTEL GB
259,havre-saint-pierre,CA,50.23,-63.6,Hotel Du Havre
260,mahajanga,MG,-15.72,46.32,Baobab Tree Hotel & Spa
261,polunochnoye,RU,60.87,60.42,
262,tawang,IN,27.58,91.87,Hotel Taktsang
263,nantucket,US,41.28,-70.1,Hotel Pippa
264,micheweni,TZ,-4.97,39.83,
265,kathu,TH,7.92,98.33,The Marina Phuket Hotel
266,padang,ID,-0.95,100.35,Ibis Padang
267,hobyo,SO,5.35,48.53,
268,gorom-gorom,BF,14.44,-0.24,
269,luganville,VU,-15.53,167.17,Hotel Santo
270,itarema,BR,-2.92,-39.92,Hotel Itarema Residence
271,changji,CN,44.02,87.32,Garden Hotel
272,dunedin,NZ,-45.87,170.5,Distinction Dunedin Hotel
273,khatanga,RU,71.97,102.5,
274,chake chake,CN,23.86,103.05,
275,touros,BR,-5.2,-35.46,Pousada Amigos do Vento
276,hasaki,JP,35.73,140.83,Inn Inubosaki hotel of superb view
277,pareora,NZ,-44.49,171.21,
278,miquelon,PM,47.1,-56.38,Auberge de l’Île
279,luanda,AO,-8.84,13.23,Hotel Continental Luanda
280,vila,PT,42.03,-8.16,Moinho do Poço Verde
281,cabra,ES,37.47,-4.44,Hotel Villa María
282,santa maria,PH,17.49,120.43,
283,cap malheureux,FR,49.27,-1.21,Hôtel Kyriad Carentan
284,isangel,VU,-19.55,169.27,Apera Beach Front Bungalows
285,sosua,DO,19.77,-70.52,Hotel D'Piero
286,byron bay,US,44.03,-92.65,
287,pevek,RU,69.7,170.31,
288,zambezi,ZM,-13.54,23.1,Royal Kutachika Lodge
289,berlevag,NO,70.86,29.09,Berlevåg camping & Appartement AS
290,marawi,PH,8.0,124.29,Marawi Resort Hotel
291,coahuayana,MX,18.73,-103.68,Hotel Los Arcos
292,yaval,IN,21.17,75.7,
293,kieta,PG,-6.22,155.63,
294,safford,US,32.83,-109.71,SpringHill Suites by Marriott Thatcher
295,laguna,US,38.42,-121.42,Hilton Garden Inn Sacramento Elk Grove
296,coihaique,CL,-45.58,-72.07,Hotel Dreams de la Patagonia
297,bandarbeyla,SO,9.49,50.81,
298,dandong,CN,40.13,124.39,Hilton Garden Inn Dandong
299,teacapan,MX,22.55,-105.75,Hotel los Mangos
300,watsa,CD,3.04,29.54,
301,talcahuano,CL,-36.72,-73.12,Hotel Düsseldorf
302,belawan,ID,3.78,98.68,
303,sibolga,ID,1.74,98.78,Hotel Wisata Indah
304,kodiak,US,57.79,-152.41,Shelikof Lodge
305,bilibino,RU,68.05,166.44,
306,north myrtle beach,FR,50.33,3.67,
307,virginia beach,US,37.55,-77.45,Holiday Inn Express Richmond - Midtown
308,carlisle,US,40.2,-77.19,"Country Inn & Suites by Radisson, Carlisle, PA"
309,bulgan,MN,48.81,103.53,Bulgan Skytel
310,kashi,CN,39.45,75.98,Radisson Blu Hotel Kashgar
311,catanduva,BR,-21.14,-48.97,Hotel ibis Catanduva
312,araouane,ML,18.9,-3.53,
313,amga,RU,60.9,131.96,Algys
314,norman wells,US,35.22,-97.44,Courtyard by Marriott Norman
315,kulhudhuffushi,MV,6.62,73.07,Hondaafushi Island Resort
316,bima,ID,-8.47,118.72,Tambora Homestay Bima
317,matamoros,MX,25.53,-103.25,
318,faanui,PF,-16.48,-151.75,Le Méridien Bora Bora
319,nevelsk,RU,46.67,141.86,Donja Quixote
320,minnedosa,CA,50.25,-99.84,Farmhouse 50
321,vila velha,PT,42.03,-8.16,Moinho do Poço Verde
322,kouango,CF,4.99,19.96,
323,sitangkai,PH,4.66,119.39,
324,caxias do sul,PT,38.7,-9.28,Hotel Real Oeiras
325,cassia,BR,-20.58,-46.92,Teko's hotel
326,bhadasar,IN,28.28,74.32,
327,reconquista,AR,-29.15,-59.65,Hotel Ychoalay Caz
328,kimparana,ML,12.83,-4.92,
329,anadyr,RU,64.75,177.48,Chukotka hotel
330,miri,MY,4.41,114.01,Pullman Miri Waterfront
331,baijiantan,CN,45.63,85.18,
332,adrar,MR,20.5,-10.07,
333,birao,CF,10.28,22.79,
334,bressanone,IT,46.72,11.66,Hotel Grüner Baum
335,sturgis,US,41.8,-85.42,"Holiday Inn Express Howe (Sturgis, MI)"
336,aketi,CD,2.74,23.78,
337,teya,RU,60.38,92.63,
338,husavik,IS,66.04,-17.34,Húsavík Hotels
339,sorland,NO,67.67,12.69,Lofoten Værøy Brygge
340,khandyga,RU,62.67,135.6,"Gostinitsa ""Kak Doma"""
341,laramie,US,41.31,-105.59,Hampton Inn Laramie
342,balagansk,RU,54.01,103.05,
343,ambilobe,MG,-13.2,49.05,Hotel National
344,camacha,PT,33.08,-16.33,Hotel Porto Santo & Spa
345,shieli,KZ,44.17,66.75,Гостиница Достық
346,tirumullaivasal,IN,11.23,79.83,
347,kitimat,CA,54.05,-128.65,MStar Hotel Kitimat
348,yazman,PK,29.12,71.74,
349,batie,BF,9.88,-2.92,
350,jiquipilas,MX,16.67,-93.65,Hotel Jardín del Valle INN
351,lasa,IT,46.62,10.7,Untertelshof
352,pacific grove,US,38.48,-90.74,Holiday Inn Saint Louis West at Six Flags
353,ayan,RU,56.45,138.17,
354,mantua,IT,45.17,10.78,Best Western Hotel Cristallo
355,wakkanai,JP,45.41,141.67,Surfeel Hotel Wakkanai
356,dingle,PH,11.0,122.67,
357,abaza,RU,52.66,90.09,Гостиничный комплекс «Кедр»
358,kalianget,ID,-7.05,113.93,
359,oksfjord,NO,70.24,22.35,
360,aksarka,RU,66.56,67.8,
361,zhigansk,RU,66.77,123.37,
362,sergeyevka,KZ,53.88,67.42,
363,bilma,NE,18.69,12.92,
364,saint-alexandre,FR,44.23,4.62,Hôtel Le Mas de l'Olivier
365,buy,RU,58.48,41.53,Hotel Variant C
366,joshimath,IN,30.57,79.57,The Tattva Resort
367,port lincoln,CD,-7.03,29.76,
368,key west,US,32.73,-101.8,
369,san cristobal,ML,13.3,-4.9,Hôtel Teriya
370,griffith,US,41.53,-87.42,"Fairfield Inn & Suites by Marriott Chicago Southeast/Hammond, IN"
371,faya,SA,18.39,42.45,
372,grindavik,IS,63.84,-22.43,Mar Guesthouse
373,rio grande,GR,38.3,21.78,Airotel Achaia Beach
374,zaoyang,CN,32.13,112.75,Zaoyabg International Hotel
375,kenai,US,60.55,-151.26,Kenai Airport Hotel
376,mabaruma,GY,8.2,-59.78,
377,zlitan,LY,32.47,14.57,Zliten Hotel
378,tura,IN,25.52,90.22,Hotel RIKMAN Continental
379,sungaipenuh,ID,-2.08,101.38,DHEADITA Hotel
380,rawson,AR,-43.3,-65.1,Hotel Punta León
381,weinan,CN,34.5,109.51,Mesa International Hotel
382,moen,NO,69.13,18.61,
383,rantepao,ID,-2.97,119.9,Toraja Heritage Hotel
384,smithers,CA,54.78,-127.17,Prestige Hudson Bay Lodge
385,huarmey,PE,-10.07,-78.15,Hotel Miramar
386,moose factory,US,43.66,-110.72,
387,nichinan,JP,31.6,131.37,Hostel Marika-ホステルマリカ-（宮崎県）
388,celestun,MX,20.87,-90.4,Ria Celestun
389,asosa,ET,10.07,34.53,Bamboo Paradise Hotel
390,denpasar,ID,-8.65,115.22,Grand Kesambi Resort and Villas
391,mount isa,GB,53.66,-1.85,Manor House Lindley
392,plainview,US,40.78,-73.47,The Inn at Fox Hollow
393,deputatskiy,RU,69.3,139.9,
394,bagdarin,RU,54.43,113.6,
395,morton,US,46.77,-101.26,
396,floro,NO,61.6,5.03,Quality Hotel Florø
397,sioux lookout,US,42.73,-96.23,
398,ilhabela,BR,-23.78,-45.36,Porto Pacuíba Hotel
399,inhambane,MZ,-23.86,35.38,Sentidos Beach Retreat
400,mayo,US,38.89,-76.51,
401,asau,RO,46.43,26.4,Pensiunea Sophia
402,san ramon de la nueva oran,ML,13.3,-4.9,Hôtel Teriya
403,merauke,ID,-8.47,140.33,
404,necochea,AR,-38.55,-58.74,Hotel Lobo de Mar
405,osakarovka,KZ,50.56,72.57,Motel' Osakarovka
406,san jeronimo,ML,13.3,-4.9,Hôtel Teriya
407,masvingo,ZW,-20.06,30.83,Lodge At Ancient City
408,north bend,FR,50.33,3.67,
409,aljezur,PT,37.32,-8.8,Aljezur Villas Hostel
410,damghan,IR,36.17,54.35,Damghan Tourism Hotel
411,nemuro,JP,43.32,145.57,Hotel Nemuro Kaiyoutei
412,poso,ID,-1.4,120.75,Ancyra Hotel By Continent - Poso
413,miles city,US,35.19,-120.7,The Cliffs Hotel and Spa
414,tiznit,MA,29.58,-9.5,
415,sao joao da barra,IN,20.51,76.21,BULDANA URBAN RESIDENCY CLUB
416,atambua,ID,-9.11,124.89,Hotel King Star
417,makakilo city,US,21.35,-158.09,Marriott's Ko Olina Beach Club
418,severnyy-kospashskiy,RU,59.09,57.8,
419,vittoria,IT,36.95,14.53,Grand Hotel Vittoria
420,ulaangom,MN,49.98,92.07,Grand restaurant & hotel
421,mitchell,US,43.71,-98.03,Kelly Inn & Suites
422,pringsewu,ID,-5.36,104.97,Urban Style by Front One
423,agapovka,RU,53.3,59.13,
424,vyazniki,RU,56.25,42.17,"Motel ""Traffic Light"""
425,boyolangu,ID,-8.12,111.89,Crown Victoria Hotel
426,sidi qasim,CF,5.08,19.88,
427,mwinilunga,ZM,-11.74,24.43,Muzina Guest House
428,anloga,GH,5.79,0.9,BeatzWave Studios
429,severodvinsk,RU,64.56,39.83,Nikolsky Posad
430,mims,US,28.67,-80.84,The Wayward Traveler's Inn
431,ballarpur,IN,19.83,79.35,
432,madimba,TZ,-10.4,40.33,
433,saint-denis,FR,48.92,2.33,Hôtel Particulier Montmartre
434,kautokeino,NO,69.01,23.04,Thon Hotel Kautokeino
435,kununurra,AU,-15.77,128.73,Hotel Kununurra
436,samarai,PG,-10.62,150.67,Nuli Sapi
437,san fernando,ML,13.3,-4.9,Hôtel Teriya
438,ulladulla,AU,-35.35,150.47,Bannisters Pavilion
439,rognac,FR,43.49,5.23,Hôtel Ibis Marseille Provence Aéroport
440,stephenville,US,32.22,-98.2,Hampton Inn & Suites Stephenville
441,mazyr,BY,52.05,29.25,"""Prypiać"" Hotel"
442,ballina,AU,-28.87,153.57,Ballina Byron Islander Resort
443,fare,PF,-16.7,-151.02,Maitai Lapita Village Huahine
444,georgiyevka,KZ,43.04,74.71,
445,knysna,ZA,-34.04,23.05,Pezula Resort Hotel & Spa
446,san matias,ML,13.3,-4.9,Hôtel Teriya
447,hay river,GB,52.07,-3.13,Foyles of Glasbury
448,norrkoping,SE,58.59,16.18,The Lamp Hotel
449,wagar,SD,16.15,36.2,
450,tarana,IN,23.33,76.03,
451,elliot lake,ZA,-31.33,27.85,Rose Garden Dinner Bed and Breakfast
452,intipuca,SV,13.2,-88.05,La Tortuga Verde
453,kuah,MY,6.33,99.84,The Westin Langkawi Resort & Spa
454,corral nuevo,CL,-39.89,-73.43,Hotel y Departamentos El Castillo Niebla
455,bonthe,SL,7.53,-12.51,Bonthe Holiday Village
456,lawrenceburg,US,38.04,-84.9,Best Western Lawrenceburg Inn
457,yar-sale,RU,66.83,70.83,"Hotel ""Nord House"""
458,parabel,RU,58.7,81.48,Levkada
459,ulagan,RU,50.63,87.96,Gostinitsa Uyut
460,dauriya,RU,49.93,116.87,
461,feijo,BR,-8.16,-70.35,JOAFRAN HOTEL
462,gijon,ES,43.54,-5.66,abba Playa Gijón Hotel
463,sonoita,MX,31.85,-112.83,Hotel Excelsior
464,cabot,US,34.97,-92.02,Days Inn & Suites by Wyndham Cabot
465,oran,DZ,35.69,-0.64,Four Points by Sheraton Oran
466,raudeberg,NO,61.99,5.14,Ulvesund FYR
467,flinders,AU,-34.58,150.86,Lakeview Hotel Motel
468,ust-koksa,RU,50.27,85.61,"Эко отель ""Альтаир"""
469,pottsville,US,40.69,-76.2,Ramada by Wyndham Pottsville/Frackville
470,ginir,ET,7.13,40.7,Ijole Bale Hotel
471,rochefort,FR,45.92,-1.0,Hotel Mercure Rochefort La Corderie Royale
472,shenkursk,RU,62.11,42.9,"""Vaga"" hotel"
473,sokoni,TZ,-6.43,39.55,Ujamaa Beach Resort
474,taber,CA,49.82,-112.15,Heritage Inn Hotel & Convention Centre
475,beringovskiy,RU,63.05,179.32,
476,kansanshi,ZM,-12.1,26.43,
477,sibu,MY,2.3,111.82,Kingwood Hotel (Sibu) Sdn Bhd
478,mapiripan,CO,2.89,-72.13,Hotel Matiyury
479,cortez,US,37.35,-108.59,Holiday Inn Express Mesa Verde-Cortez
480,praya,CV,14.92,-23.51,Hotel Oasis Atlantico Praiamar
481,omboue,GA,-1.57,9.26,Hotel Olako
482,miracema do tocantins,BR,-21.41,-42.2,Novo Hotel Varandas
483,mitu,CO,1.2,-70.17,
484,muravlenko,RU,63.79,74.52,E-Hotel Muravlenko
485,myaundzha,RU,63.05,147.19,
486,emirdag,TR,39.02,31.15,emirdağ oteli
487,ufa,RU,54.77,56.04,Hampton by Hilton Ufa
488,naze,JP,28.37,129.48,Amami Sun Plaza Hotel
489,san carlos de bariloche,ML,13.3,-4.9,Hôtel Teriya
490,alice springs,US,27.75,-98.07,Hampton Inn Alice
491,sunnyside,US,46.32,-120.01,Best Western Plus Grapevine Inn
492,harwich,GB,51.94,1.28,The Tower Hotel
493,belmonte,BR,-15.86,-38.88,Pousada Rio
494,sur,OM,22.57,59.53,Resort Sur Beach Holiday منتجع شاطئ صور هوليداي
495,olinda,BR,-8.01,-34.86,Hotel 7 Colinas
496,aswan,EG,24.09,32.91,Hotel Sofitel Legend Old Cataract Aswan
497,banda aceh,IN,25.48,80.33,S S Residency- Best Hotel in Banda
498,santa vitoria do palmar,PH,17.49,120.43,
499,aksarayskiy,RU,46.79,48.01,
500,tromso,NO,69.65,18.96,"Radisson Blu Hotel, Tromsø"
501,igarka,RU,67.47,86.58,Igarka Airport Hotel
502,thaba-tseka,LS,-29.52,28.61,Mohale Oa Masite Hotel
503,monte azul,FR,42.47,9.39,L'appollu
504,kosh-agach,RU,50.0,88.67,Vizit-tsentr Sailiughiemskii
505,sangar,RU,63.92,127.47,
506,narsaq,GL,60.92,-46.05,Hotel Narsaq
507,hovd,MN,48.01,91.64,Steppe hotel
508,lomza,PL,53.18,22.06,Metropol
509,pangoa,PE,-12.12,-73.0,
510,rumonge,BI,-3.97,29.44,Bethel Hotel
511,prieska,ZA,-29.66,22.75,Gariep Country Lodge
512,newport,GB,51.59,-3.0,The Celtic Manor Resort
513,kristiinankaupunki,FI,62.27,21.38,Hotelli Krepelin
514,charters towers,US,38.57,-83.43,
515,ternate,ID,0.8,127.4,Hotel Emerald
516,winnemucca,US,40.97,-117.74,Holiday Inn Express Winnemucca
517,arona,ES,28.1,-16.68,H10 Las Palmeras
518,ketchikan,US,55.34,-131.65,Inn at Creek Street
519,dongsheng,CN,39.82,109.98,Crowne Plaza Ordos
520,bastia,FR,42.67,9.33,Hôtel Sant'Andria
521,sisimiut,GL,66.94,-53.67,Hotel Sisimiut
522,balkhash,KZ,46.84,74.98,Guest House Comfort-House-Balkhash
